[{"OBJECT_NAME":"SPIP","OBJECT_ID":"2023-174AU","EPOCH":"2026-03-09T22:52:46.383168","MEAN_MOTION":15.26695413,"ECCENTRICITY":0.00100427,"INCLINATION":97.3901,"RA_OF_ASC_NODE":146.4534,"ARG_OF_PERICENTER":168.1112,"MEAN_ANOMALY":192.0366,"EPHEMERIS_TYPE":0,"CLASSIFICATION_TYPE":"U","NORAD_CAT_ID":58298,"ELEMENT_SET_NO":999,"REV_AT_EPOCH":12963,"BSTAR":0.00025731582,"MEAN_MOTION_DOT":6.692e-5,"MEAN_MOTION_DDOT":0},{"OBJECT_NAME":"STARLINK-31096","OBJECT_ID":"2023-200D","EPOCH":"2026-03-09T07:03:07.343136","MEAN_MOTION":15.22976409,"ECCENTRICITY":0.00021529,"INCLINATION":43.0024,"RA_OF_ASC_NODE":171.6597,"ARG_OF_PERICENTER":311.2907,"MEAN_ANOMALY":48.7758,"EPHEMERIS_TYPE":0,"CLASSIFICATION_TYPE":"U","NORAD_CAT_ID":58592,"ELEMENT_SET_NO":999,"REV_AT_EPOCH":12354,"BSTAR":0.0018691683,"MEAN_MOTION_DOT":0.00044809,"MEAN_MOTION_DDOT":0}]
